start=new Date('2021-09-16T00:00:00.000Z').valueOf();
sats=[{"ARG_OF_PERICENTER":"91.3773","ELEMENT_SET_NO":"999","BSTAR":"0.00242260000000","PERIOD":"95.594","TLE_LINE1":"1 48585U 21041AJ  21258.91667824  .00035962  00000-0  24226-2 0  9992","COUNTRY_CODE":"US","APOAPSIS":"548.037","RCS_SIZE":"LARGE","NORAD_CAT_ID":"48585","MEAN_MOTION":"15.06373404","TIME_SYSTEM":"UTC","INCLINATION":"53.0547","FILE":"3116597","EPOCH":"2021-09-15T22:00:00.999936","EPHEMERIS_TYPE":"0","PERIAPSIS":"546.553","MEAN_ANOMALY":"7.6118","GP_ID":"184789508","REF_FRAME":"TEME","MEAN_MOTION_DOT":"0.00035962","MEAN_ELEMENT_THEORY":"SGP4","DECAY_DATE":null,"OBJECT_ID":"2021-041AJ","MEAN_MOTION_DDOT":"0.0000000000000","OBJECT_TYPE":"PAYLOAD","ECCENTRICITY":"0.00010720","LAUNCH_DATE":"2021-05-15","RA_OF_ASC_NODE":"284.8840","OBJECT_NAME":"STARLINK-2240","CLASSIFICATION_TYPE":"U","SITE":"AFETR","CENTER_NAME":"EARTH","TLE_LINE2":"2 48585  53.0547 284.8840 0001072  91.3773   7.6118 15.06373404  3560","REV_AT_EPOCH":"356","SEMIMAJOR_AXIS":"6925.430"},{"TLE_LINE1":"1 48586U 21041AK  21258.91667824  .00034526  00000-0  23264-2 0  9999","COUNTRY_CODE":"US","PERIOD":"95.593","BSTAR":"0.00232640000000","ELEMENT_SET_NO":"999","ARG_OF_PERICENTER":"82.0511","RCS_SIZE":"LARGE","APOAPSIS":"547.685","EPOCH":"2021-09-15T22:00:00.999936","FILE":"3116597","INCLINATION":"53.0542","NORAD_CAT_ID":"48586","MEAN_MOTION":"15.06384610","TIME_SYSTEM":"UTC","MEAN_ELEMENT_THEORY":"SGP4","MEAN_MOTION_DOT":"0.00034526","REF_FRAME":"TEME","GP_ID":"184789415","MEAN_ANOMALY":"56.9633","PERIAPSIS":"546.837","EPHEMERIS_TYPE":"0","MEAN_MOTION_DDOT":"0.0000000000000","DECAY_DATE":null,"OBJECT_ID":"2021-041AK","OBJECT_TYPE":"PAYLOAD","CLASSIFICATION_TYPE":"U","OBJECT_NAME":"STARLINK-2241","RA_OF_ASC_NODE":"284.8844","LAUNCH_DATE":"2021-05-15","ECCENTRICITY":"0.00006120","SEMIMAJOR_AXIS":"6925.396","REV_AT_EPOCH":"356","TLE_LINE2":"2 48586  53.0542 284.8844 0000612  82.0511  56.9633 15.06384610  3566","CENTER_NAME":"EARTH","SITE":"AFETR"},{"TLE_LINE1":"1 48587U 21041AL  21258.91667824  .00035859  00000-0  24155-2 0  9990","PERIOD":"95.594","COUNTRY_CODE":"US","ARG_OF_PERICENTER":"71.3936","BSTAR":"0.00241550000000","ELEMENT_SET_NO":"999","RCS_SIZE":"LARGE","APOAPSIS":"547.804","EPOCH":"2021-09-15T22:00:00.999936","INCLINATION":"53.0535","NORAD_CAT_ID":"48587","TIME_SYSTEM":"UTC","MEAN_MOTION":"15.06377665","FILE":"3116597","MEAN_ELEMENT_THEORY":"SGP4","MEAN_MOTION_DOT":"0.00035859","PERIAPSIS":"546.760","EPHEMERIS_TYPE":"0","GP_ID":"184789547","REF_FRAME":"TEME","MEAN_ANOMALY":"32.7115","DECAY_DATE":null,"OBJECT_ID":"2021-041AL","MEAN_MOTION_DDOT":"0.0000000000000","OBJECT_TYPE":"PAYLOAD","CLASSIFICATION_TYPE":"U","OBJECT_NAME":"STARLINK-2242","ECCENTRICITY":"0.00007540","LAUNCH_DATE":"2021-05-15","RA_OF_ASC_NODE":"284.8776","SEMIMAJOR_AXIS":"6925.417","REV_AT_EPOCH":"356","CENTER_NAME":"EARTH","SITE":"AFETR","TLE_LINE2":"2 48587  53.0535 284.8776 0000754  71.3936  32.7115 15.06377665  3561"},{"MEAN_ELEMENT_THEORY":"SGP4","MEAN_MOTION_DOT":"-0.00000862","GP_ID":"184789325","MEAN_ANOMALY":"287.1264","REF_FRAME":"TEME","PERIAPSIS":"546.949","EPHEMERIS_TYPE":"0","EPOCH":"2021-09-15T17:46:52.098528","FILE":"3116597","INCLINATION":"53.0556","NORAD_CAT_ID":"48588","TIME_SYSTEM":"UTC","MEAN_MOTION":"15.06392547","RCS_SIZE":"LARGE","APOAPSIS":"547.524","PERIOD":"95.593","TLE_LINE1":"1 48588U 21041AM  21258.74088077 -.00000862  00000-0 -39011-4 0  9996","COUNTRY_CODE":"US","BSTAR":"-0.00003901100000","ELEMENT_SET_NO":"999","ARG_OF_PERICENTER":"72.9771","SEMIMAJOR_AXIS":"6925.371","REV_AT_EPOCH":"1862","TLE_LINE2":"2 48588  53.0556 275.6861 0000415  72.9771 287.1264 15.06392547 18626","CENTER_NAME":"EARTH","SITE":"AFETR","CLASSIFICATION_TYPE":"U","OBJECT_NAME":"STARLINK-2244","RA_OF_ASC_NODE":"275.6861","LAUNCH_DATE":"2021-05-15","ECCENTRICITY":"0.00004150","OBJECT_TYPE":"PAYLOAD","MEAN_MOTION_DDOT":"0.0000000000000","OBJECT_ID":"2021-041AM","DECAY_DATE":null},{"OBJECT_TYPE":"PAYLOAD","MEAN_MOTION_DDOT":"0.0000000000000","OBJECT_ID":"2021-041AN","DECAY_DATE":null,"REV_AT_EPOCH":"1858","SEMIMAJOR_AXIS":"6925.334","TLE_LINE2":"2 48589  53.0539 276.8911 0000150 287.0294  73.0678 15.06404699 18580","SITE":"AFETR","CENTER_NAME":"EARTH","OBJECT_NAME":"STARLINK-2245","CLASSIFICATION_TYPE":"U","RA_OF_ASC_NODE":"276.8911","LAUNCH_DATE":"2021-05-15","ECCENTRICITY":"0.00001500","RCS_SIZE":"LARGE","APOAPSIS":"547.303","TLE_LINE1":"1 48589U 21041AN  21258.47179816  .00001253  00000-0  10298-3 0  9997","COUNTRY_CODE":"US","PERIOD":"95.592","ELEMENT_SET_NO":"999","BSTAR":"0.00010298000000","ARG_OF_PERICENTER":"287.0294","MEAN_MOTION_DOT":"0.00001253","MEAN_ELEMENT_THEORY":"SGP4","MEAN_ANOMALY":"73.0678","GP_ID":"184760422","REF_FRAME":"TEME","EPHEMERIS_TYPE":"0","PERIAPSIS":"547.095","EPOCH":"2021-09-15T11:19:23.361024","FILE":"3116289","NORAD_CAT_ID":"48589","TIME_SYSTEM":"UTC","MEAN_MOTION":"15.06404699","INCLINATION":"53.0539"},{"RCS_SIZE":"LARGE","APOAPSIS":"547.657","TLE_LINE1":"1 48590U 21041AP  21258.91667824  .00036045  00000-0  24281-2 0  9992","PERIOD":"95.594","COUNTRY_CODE":"US","ARG_OF_PERICENTER":"70.4318","BSTAR":"0.00242810000000","ELEMENT_SET_NO":"999","MEAN_ELEMENT_THEORY":"SGP4","MEAN_MOTION_DOT":"0.00036045","PERIAPSIS":"546.931","EPHEMERIS_TYPE":"0","GP_ID":"184789730","REF_FRAME":"TEME","MEAN_ANOMALY":"48.5661","EPOCH":"2021-09-15T22:00:00.999936","INCLINATION":"53.0544","NORAD_CAT_ID":"48590","TIME_SYSTEM":"UTC","MEAN_MOTION":"15.06373862","FILE":"3116597","OBJECT_TYPE":"PAYLOAD","DECAY_DATE":null,"OBJECT_ID":"2021-041AP","MEAN_MOTION_DDOT":"0.0000000000000","REV_AT_EPOCH":"360","SEMIMAJOR_AXIS":"6925.429","CENTER_NAME":"EARTH","SITE":"AFETR","TLE_LINE2":"2 48590  53.0544 284.8817 0000524  70.4318  48.5661 15.06373862  3601","OBJECT_NAME":"STARLINK-2246","CLASSIFICATION_TYPE":"U","ECCENTRICITY":"0.00005240","LAUNCH_DATE":"2021-05-15","RA_OF_ASC_NODE":"284.8817"},{"RCS_SIZE":"LARGE","APOAPSIS":"547.409","TLE_LINE1":"1 48591U 21041AQ  21258.46443467  .00000801  00000-0  72667-4 0  9992","COUNTRY_CODE":"US","PERIOD":"95.593","BSTAR":"0.00007266700000","ELEMENT_SET_NO":"999","ARG_OF_PERICENTER":"9.0970","MEAN_ELEMENT_THEORY":"SGP4","MEAN_MOTION_DOT":"0.00000801","GP_ID":"184760199","REF_FRAME":"TEME","MEAN_ANOMALY":"351.0023","PERIAPSIS":"547.088","EPHEMERIS_TYPE":"0","EPOCH":"2021-09-15T11:08:47.155488","FILE":"3116289","INCLINATION":"53.0548","NORAD_CAT_ID":"48591","MEAN_MOTION":"15.06388506","TIME_SYSTEM":"UTC","OBJECT_TYPE":"PAYLOAD","MEAN_MOTION_DDOT":"0.0000000000000","DECAY_DATE":null,"OBJECT_ID":"2021-041AQ","REV_AT_EPOCH":"1948","SEMIMAJOR_AXIS":"6925.384","TLE_LINE2":"2 48591  53.0548 276.9216 0000232   9.0970 351.0023 15.06388506 19487","CENTER_NAME":"EARTH","SITE":"AFETR","OBJECT_NAME":"STARLINK-2248","CLASSIFICATION_TYPE":"U","RA_OF_ASC_NODE":"276.9216","LAUNCH_DATE":"2021-05-15","ECCENTRICITY":"0.00002320"},{"TLE_LINE2":"2 48592  53.0555 285.4308 0000406 122.1048 237.9981 15.06390374 18490","SITE":"AFETR","CENTER_NAME":"EARTH","REV_AT_EPOCH":"1849","SEMIMAJOR_AXIS":"6925.378","LAUNCH_DATE":"2021-05-15","RA_OF_ASC_NODE":"285.4308","ECCENTRICITY":"0.00004060","CLASSIFICATION_TYPE":"U","OBJECT_NAME":"STARLINK-2249","OBJECT_TYPE":"PAYLOAD","MEAN_MOTION_DDOT":"0.0000000000000","OBJECT_ID":"2021-041AR","DECAY_DATE":null,"GP_ID":"184789640","MEAN_ANOMALY":"237.9981","REF_FRAME":"TEME","EPHEMERIS_TYPE":"0","PERIAPSIS":"546.962","MEAN_MOTION_DOT":"-0.00000933","MEAN_ELEMENT_THEORY":"SGP4","FILE":"3116597","NORAD_CAT_ID":"48592","TIME_SYSTEM":"UTC","MEAN_MOTION":"15.06390374","INCLINATION":"53.0555","EPOCH":"2021-09-15T19:05:09.623328","APOAPSIS":"547.524","RCS_SIZE":"MEDIUM","ELEMENT_SET_NO":"999","BSTAR":"-0.00004380300000","ARG_OF_PERICENTER":"122.1048","PERIOD":"95.593","TLE_LINE1":"1 48592U 21041AR  21258.79525027 -.00000933  00000-0 -43803-4 0  9990","COUNTRY_CODE":"US"},{"SITE":"AFETR","CENTER_NAME":"EARTH","TLE_LINE2":"2 48593  53.0549 285.3935 0000322  85.0583 275.0443 15.06390697 18491","REV_AT_EPOCH":"1849","SEMIMAJOR_AXIS":"6925.377","ECCENTRICITY":"0.00003220","LAUNCH_DATE":"2021-05-15","RA_OF_ASC_NODE":"285.3935","CLASSIFICATION_TYPE":"U","OBJECT_NAME":"STARLINK-2250","OBJECT_TYPE":"PAYLOAD","DECAY_DATE":null,"OBJECT_ID":"2021-041AS","MEAN_MOTION_DDOT":"0.0000000000000","EPHEMERIS_TYPE":"0","PERIAPSIS":"547.019","GP_ID":"184789509","REF_FRAME":"TEME","MEAN_ANOMALY":"275.0443","MEAN_MOTION_DOT":"0.00000845","MEAN_ELEMENT_THEORY":"SGP4","NORAD_CAT_ID":"48593","TIME_SYSTEM":"UTC","MEAN_MOTION":"15.06390697","INCLINATION":"53.0549","FILE":"3116597","EPOCH":"2021-09-15T19:15:46.570176","APOAPSIS":"547.465","RCS_SIZE":"LARGE","ARG_OF_PERICENTER":"85.0583","ELEMENT_SET_NO":"999","BSTAR":"0.00007562300000","TLE_LINE1":"1 48593U 21041AS  21258.80262234  .00000845  00000-0  75623-4 0  9996","COUNTRY_CODE":"US","PERIOD":"95.593"},{"EPOCH":"2021-09-15T22:00:00.999936","FILE":"3116579","NORAD_CAT_ID":"48594","MEAN_MOTION":"15.30479828","TIME_SYSTEM":"UTC","INCLINATION":"53.0578","MEAN_MOTION_DOT":"-0.00985741","MEAN_ELEMENT_THEORY":"SGP4","GP_ID":"184766497","MEAN_ANOMALY":"19.0752","REF_FRAME":"TEME","EPHEMERIS_TYPE":"0","PERIAPSIS":"473.326","COUNTRY_CODE":"US","TLE_LINE1":"1 48594U 21041AT  21258.91667824 -.00985741  00000-0 -35733-1 0  9997","PERIOD":"94.088","ELEMENT_SET_NO":"999","BSTAR":"-0.03573300000000","ARG_OF_PERICENTER":"29.2298","RCS_SIZE":"LARGE","APOAPSIS":"475.438","OBJECT_NAME":"STARLINK-2251","CLASSIFICATION_TYPE":"U","LAUNCH_DATE":"2021-05-15","RA_OF_ASC_NODE":"255.7112","ECCENTRICITY":"0.00015410","SEMIMAJOR_AXIS":"6852.517","REV_AT_EPOCH":"1937","TLE_LINE2":"2 48594  53.0578 255.7112 0001541  29.2298  19.0752 15.30479828 19377","SITE":"AFETR","CENTER_NAME":"EARTH","MEAN_MOTION_DDOT":"0.0000000000000","OBJECT_ID":"2021-041AT","DECAY_DATE":null,"OBJECT_TYPE":"PAYLOAD"}];
